{"type":"FeatureCollection","name":"named_mountain_axes","features":[{"type":"Feature","properties":{"name":"大巴山","source":"WGS84 geographic axis"},"geometry":{"type":"LineString","coordinates":[[106.1,32.4],[107.4,32],[108.7,31.8],[110.2,31.5]]}},{"type":"Feature","properties":{"name":"燕山","source":"WGS84 geographic axis"},"geometry":{"type":"LineString","coordinates":[[115.4,40.6],[117,40.5],[118.6,40.3],[120,40.1]]}},{"type":"Feature","properties":{"name":"长白山","source":"WGS84 geographic axis"},"geometry":{"type":"LineString","coordinates":[[125.4,42.1],[127,42.5],[128.5,43.2],[129.4,44.1]]}}]}