{"type":"FeatureCollection","name":"ne_50m_geography_regions_polys","crs":{"type":"name","properties":{"name":"urn:ogc:def:crs:OGC:1.3:CRS84"}},"features":[{"type":"Feature","properties":{"FEATURECLA":"Range/mtn","NAME":"TIAN SHAN","NAMEALT":null,"REGION":"Asia","SUBREGION":null,"MIN_LABEL":2,"MAX_LABEL":6,"SCALERANK":1,"LABEL":"TIAN SHAN","WIKIDATAID":"Q5474","NAME_AR":"جبال تيان شان","NAME_BN":"থিয়েন শান পর্বতমালা","NAME_DE":"Tian Shan","NAME_EN":"Tian Shan","NAME_ES":"Tian Shan","NAME_FR":"Tian Shan","NAME_EL":"Τιεν Σαν","NAME_HI":"तियाँ शान","NAME_HU":"Tien-san","NAME_ID":"Tian Shan","NAME_IT":"Tien Shan","NAME_JA":"天山山脈","NAME_KO":"톈산산맥","NAME_NL":"Tiensjan","NAME_PL":"Tienszan","NAME_PT":"Tian Shan","NAME_RU":"Тянь-Шань","NAME_SV":"Tianshan","NAME_TR":"Tanrı Dağları","NAME_VI":"Thiên Sơn","NAME_ZH":"天山山脈","NE_ID":1159104299,"NAME_FA":"تیان شان","NAME_HE":"טיין שאן","NAME_UK":"Тянь-Шань","NAME_UR":"تیان شان","NAME_ZHT":"天山山脈"},"bbox":[72.977061,39.660285,95.221446,44.174872],"geometry":{"type":"MultiPolygon","coordinates":[[[[74.73428,42.683085],[74.599369,42.690713],[74.391831,42.705301],[74.706798,42.689154],[74.73428,42.683085]]],[[[74.391831,42.705301],[73.851939,42.732978],[74.599369,42.690713],[74.746593,42.680365],[74.73428,42.683085],[75.091075,42.662909],[75.415782,42.717658],[76.323497,43.213202],[83.412608,43.55506],[83.579508,43.599195],[83.653575,43.618781],[84.391856,43.962897],[85.675611,44.060672],[86.703014,44.138922],[87.991222,43.905463],[90.29713,43.877936],[92.107555,44.174872],[94.928722,43.895453],[95.010997,43.874091],[95.080699,43.837165],[95.13734,43.779242],[95.180186,43.69477],[95.208629,43.578131],[95.221446,43.295233],[95.168101,43.062934],[95.057628,42.877875],[94.898692,42.73664],[94.69984,42.636176],[94.469981,42.573004],[93.951671,42.5456],[93.81544,42.563056],[93.699718,42.596076],[93.509166,42.69953],[93.139659,42.989508],[92.936412,43.092597],[92.726085,43.140815],[90.957408,43.158637],[90.720592,43.094855],[90.567149,42.984076],[90.528697,42.815436],[90.028819,42.685614],[89.780528,42.660773],[89.650035,42.672309],[88.858775,42.952338],[88.725719,42.957343],[88.602428,42.923041],[88.493663,42.838629],[88.468516,42.803229],[88.452525,42.766303],[88.423961,42.615119],[88.411632,42.579352],[88.39149,42.5456],[88.357799,42.510382],[87.280406,41.8487],[86.87672,41.72956],[86.598888,41.712531],[84.488292,41.997199],[82.165538,41.662604],[77.174693,39.885688],[74.85316,39.660285],[73.056651,39.754279],[73.011241,39.768866],[72.985973,39.799689],[72.977061,39.853339],[72.990123,40.020209],[73.210948,40.673712],[73.354259,41.795356],[73.340465,41.915534],[73.12379,42.422614],[73.1244,42.506537],[73.198375,42.649115],[73.330821,42.731879],[73.508311,42.767401],[74.391831,42.705301]]]]}},{"type":"Feature","properties":{"FEATURECLA":"Range/mtn","NAME":"HIMALAYAS","NAMEALT":null,"REGION":"Asia","SUBREGION":null,"MIN_LABEL":2,"MAX_LABEL":6,"SCALERANK":1,"LABEL":"HIMALAYAS","WIKIDATAID":"Q5451","NAME_AR":"هيمالايا","NAME_BN":"হিমালয় পর্বতমালা","NAME_DE":"Himalaya","NAME_EN":"Himalayas","NAME_ES":"Himalaya","NAME_FR":"Himalaya","NAME_EL":"Ιμαλάια","NAME_HI":"हिमालय","NAME_HU":"Himalája","NAME_ID":"Himalaya","NAME_IT":"Himalaya","NAME_JA":"ヒマラヤ山脈","NAME_KO":"히말라야산맥","NAME_NL":"Himalaya","NAME_PL":"Himalaje","NAME_PT":"Himalaias","NAME_RU":"Гималаи","NAME_SV":"Himalaya","NAME_TR":"Himalaya Dağları","NAME_VI":"Himalaya","NAME_ZH":"喜马拉雅山脉","NE_ID":1159104307,"NAME_FA":"هیمالیا","NAME_HE":"הימלאיה","NAME_UK":"Гімалаї","NAME_UR":"سلسلہ کوہ ہمالیہ","NAME_ZHT":"喜马拉雅山脉"},"bbox":[75.521861,26.859809,95.662608,33.911933],"geometry":{"type":"Polygon","coordinates":[[[84.908092,29.178717],[87.393687,29.133612],[87.717296,29.257148],[88.05775,29.320441],[92.473155,29.102973],[93.201671,28.906989],[93.365733,28.88758],[93.520152,28.897895],[93.619395,28.927008],[93.903087,29.112738],[94.393565,29.243476],[94.77685,29.426268],[94.906383,29.488044],[95.163829,29.728156],[95.214122,29.757025],[95.27064,29.775214],[95.331065,29.782111],[95.393321,29.777594],[95.455211,29.761115],[95.514659,29.732367],[95.569347,29.690985],[95.617198,29.636542],[95.64259,29.595118],[95.650645,29.581977],[95.655788,29.564346],[95.662608,29.540961],[95.65565,29.510199],[95.632213,29.486274],[94.958995,29.19422],[94.895152,29.151313],[94.847179,29.104071],[94.796397,29.009528],[94.790538,28.921576],[94.820689,28.840155],[94.877696,28.765143],[95.255015,28.475226],[95.28297,28.434027],[95.289195,28.397467],[95.274547,28.322333],[95.272716,28.275702],[95.286998,28.217719],[95.310321,28.174817],[95.326915,28.144294],[94.908715,27.80222],[94.347179,27.342902],[93.830089,27.124335],[91.682384,26.859809],[89.645489,26.902885],[89.589976,26.904059],[89.382823,26.953803],[89.197594,27.028166],[88.900279,27.147528],[88.80067,27.160102],[88.686778,27.149482],[88.652944,27.13696],[88.251231,26.988288],[87.780528,26.903998],[87.018734,27.026632],[85.336925,27.29737],[84.665782,27.573065],[83.859264,27.701361],[83.729503,27.746772],[83.501353,27.874701],[83.297374,27.95185],[82.486827,28.014533],[82.39796,28.049018],[82.000133,28.37873],[79.305125,29.95885],[77.313975,31.126288],[75.94909,32.226119],[75.719859,32.410834],[75.582408,32.60224],[75.554412,32.681234],[75.521861,32.773078],[75.531016,32.919745],[75.594859,33.049079],[76.091563,33.527411],[76.20045,33.670966],[76.273326,33.743109],[76.381847,33.790717],[77.000089,33.866127],[77.375621,33.911933],[77.490245,33.872016],[78.029398,33.522815],[78.224375,33.396532],[84.52064,29.318549],[84.908092,29.178717]]]}},{"type":"Feature","properties":{"FEATURECLA":"Plain","NAME":"NORTH CHINA PLAIN","NAMEALT":null,"REGION":"Asia","SUBREGION":null,"MIN_LABEL":3,"MAX_LABEL":6,"SCALERANK":1,"LABEL":"NORTH CHINA PLAIN","WIKIDATAID":"Q147304","NAME_AR":"سهل شمال الصين","NAME_BN":"নর্থ চায়না প্লেন","NAME_DE":"Nordchinesische Ebene","NAME_EN":"North China Plain","NAME_ES":"Llanura del Norte de China","NAME_FR":"Grande plaine du Nord de la Chine","NAME_EL":"ΟΡΟΠΕΔΙΟ ΒΟΡΕΙΟΥ ΚΙΝΑΣ","NAME_HI":"उत्तरी चीन का मैदान","NAME_HU":"Észak-kínai-síkság","NAME_ID":"Dataran Tiongkok Utara","NAME_IT":"pianura della Cina del Nord","NAME_JA":"華北平原","NAME_KO":"화베이 평원","NAME_NL":"Chinees Laagland","NAME_PL":"Nizina Chińska","NAME_PT":"Planície do Norte da China","NAME_RU":"Великая Китайская равнина","NAME_SV":"Nordkinesiska slätten","NAME_TR":"Kuzey Çin Ovası","NAME_VI":"Bình nguyên Hoa Bắc","NAME_ZH":"华北平原","NE_ID":1159104313,"NAME_FA":"دشت شمال چین","NAME_HE":"מישור סין הצפוני","NAME_UK":"Велика китайська рівнина","NAME_UR":"نارتھ چائنہ پلین","NAME_ZHT":"华北平原"},"bbox":[113.09315,30.273359,121.859938,40.341376],"geometry":{"type":"MultiPolygon","coordinates":[[[[117.625011,39.406073],[117.541148,39.052985],[117.527354,38.904975],[117.559754,38.706715],[117.553809,38.691455],[117.557813,38.625146],[117.58075,38.578234],[117.601573,38.450812],[117.622447,38.413092],[117.657237,38.384955],[117.720454,38.358711],[117.766699,38.31167],[117.909434,38.237916],[117.945201,38.200934],[118.03297,38.173102],[118.126142,38.164776],[118.535354,38.096246],[118.534068,38.059943],[118.565196,38.063544],[118.75597,38.126563],[118.8,38.12666],[118.857373,38.092293],[118.946666,38.020087],[118.972502,37.991289],[119.027539,37.904004],[119.035645,37.80918],[119.038477,37.776514],[119.070312,37.748584],[119.073521,37.740437],[119.011996,37.651121],[118.99082,37.641357],[118.982893,37.608874],[118.941661,37.549018],[118.922984,37.495917],[118.918468,37.438056],[118.928355,37.368476],[118.99232,37.166388],[119.144176,34.921332],[119.16989,34.863538],[119.165332,34.848828],[119.200977,34.748438],[119.320396,34.749213],[119.473235,34.674891],[119.58291,34.582227],[119.769727,34.496191],[119.915534,34.459813],[120.122569,34.359137],[120.227306,34.287421],[120.271495,34.240302],[120.310557,34.183295],[120.372099,34.023735],[120.425684,33.866309],[120.45808,33.800812],[120.50162,33.687924],[120.504785,33.638184],[120.60672,33.50239],[120.620797,33.479477],[120.734473,33.236621],[120.868167,33.021219],[120.872034,33.010299],[120.873561,33.00023],[120.880995,32.814009],[120.853027,32.764111],[120.853223,32.661377],[120.989941,32.567041],[121.293359,32.457324],[121.341699,32.425049],[121.375196,32.395028],[121.385265,32.379401],[121.397349,32.347968],[121.401836,32.323328],[121.403906,32.20625],[121.450781,32.15332],[121.470772,32.137112],[121.479747,32.127265],[121.500255,32.114447],[121.521739,32.108649],[121.523616,32.108472],[121.674219,32.051025],[121.751074,31.992871],[121.774492,31.966065],[121.85888,31.703271],[121.763574,31.699512],[121.680859,31.712158],[121.351953,31.858789],[121.266406,31.862695],[121.145801,31.842334],[120.973535,31.869385],[120.791699,32.031738],[120.660547,32.081055],[120.520117,32.105859],[120.184082,31.966162],[120.09873,31.975977],[120.073926,31.960254],[120.035937,31.936279],[120.191602,31.906348],[120.347461,31.9521],[120.497168,32.019824],[120.715527,31.98374],[120.752246,31.922852],[120.787793,31.819775],[120.9375,31.750195],[121.055371,31.719434],[121.204883,31.628076],[121.350977,31.485352],[121.660645,31.319727],[121.762332,31.192439],[121.810844,30.888159],[121.769434,30.870361],[121.675195,30.86377],[121.527539,30.840967],[121.454482,30.806541],[121.43922,30.805976],[121.396251,30.791266],[121.373546,30.772956],[121.363902,30.750861],[121.362706,30.743307],[121.309961,30.699707],[120.997656,30.558252],[120.968893,30.515367],[120.925059,30.468329],[120.868398,30.378095],[120.826747,30.35727],[120.768443,30.370246],[120.745588,30.368997],[120.62998,30.390869],[120.449805,30.387842],[120.245508,30.283545],[120.233238,30.273359],[120.206432,30.273505],[120.144542,30.299933],[120.094249,30.362799],[120.076671,30.434943],[120.090587,30.672858],[120.074107,30.748053],[120.025645,30.815558],[119.931895,30.871894],[119.380015,31.044379],[117.979381,30.953742],[117.743663,30.848273],[117.712657,30.840766],[117.680186,30.841254],[117.644542,30.851508],[117.603526,30.873297],[116.85731,31.642768],[116.616222,31.818427],[116.536388,31.856147],[116.086192,31.924994],[116.013194,31.958075],[115.885631,32.069953],[115.781871,32.115668],[115.033336,32.294379],[114.638438,32.516303],[114.476573,32.658087],[113.542369,33.933966],[113.096446,34.964606],[113.09315,35.055854],[113.178966,35.130561],[114.070445,35.429755],[114.16566,35.509467],[114.518565,36.39112],[114.527354,36.494757],[114.520518,36.549018],[114.493419,36.63172],[114.41325,36.75706],[114.404918,36.770087],[114.395518,36.799689],[114.389659,36.837043],[114.388927,36.874457],[114.41074,37.027248],[114.445567,37.271186],[114.402559,37.907961],[114.359019,38.552619],[114.396007,38.853827],[114.435802,38.970649],[114.453624,38.998053],[114.592052,39.138251],[114.608775,39.172309],[114.633189,39.262702],[114.650157,39.514167],[114.667247,39.58277],[114.7046,39.63935],[114.771739,39.681464],[114.877452,39.706366],[115.052379,39.705268],[115.673839,39.50019],[115.740855,39.502082],[115.797618,39.520331],[115.846934,39.555487],[115.891368,39.607978],[116.14564,40.060004],[116.312389,40.236029],[116.408946,40.298835],[116.51295,40.336127],[116.623668,40.341376],[116.701793,40.319831],[116.77589,40.276984],[117.182384,39.873053],[117.487804,39.699774],[117.548839,39.650214],[117.595103,39.58808],[117.621959,39.508368],[117.625011,39.406073]]],[[[121.854994,31.489614],[121.780469,31.46377],[121.519922,31.549609],[121.336426,31.64375],[121.226855,31.758105],[121.211133,31.805371],[121.338965,31.797363],[121.46416,31.756445],[121.491797,31.693652],[121.542285,31.673926],[121.576563,31.637305],[121.808301,31.552148],[121.843652,31.526367],[121.859938,31.497221],[121.854994,31.489614]]]]}},{"type":"Feature","properties":{"FEATURECLA":"Desert","NAME":"GOBI DESERT","NAMEALT":null,"REGION":"Asia","SUBREGION":null,"MIN_LABEL":3,"MAX_LABEL":6,"SCALERANK":1,"LABEL":"GOBI DESERT","WIKIDATAID":"Q42070","NAME_AR":"صحراء جوبي","NAME_BN":"গোবি মরুভূমি","NAME_DE":"Gobi","NAME_EN":"Gobi Desert","NAME_ES":"Desierto de Gobi","NAME_FR":"désert de Gobi","NAME_EL":"Γκόμπι","NAME_HI":"गोबी मरुस्थल","NAME_HU":"Góbi","NAME_ID":"Gurun Gobi","NAME_IT":"deserto del Gobi","NAME_JA":"ゴビ砂漠","NAME_KO":"고비 사막","NAME_NL":"Gobi","NAME_PL":"Gobi","NAME_PT":"Deserto de Gobi","NAME_RU":"Гоби","NAME_SV":"Gobiöknen","NAME_TR":"Gobi Çölü","NAME_VI":"Sa mạc Gobi","NAME_ZH":"大漠","NE_ID":1159104335,"NAME_FA":"بیابان گبی","NAME_HE":"מדבר גובי","NAME_UK":"Гобі","NAME_UR":"صحرائے گوبی","NAME_ZHT":"大漠"},"bbox":[94.462047,37.837104,117.72108,47.785773],"geometry":{"type":"Polygon","coordinates":[[[117.522472,44.508734],[117.340831,44.079291],[117.301036,43.91474],[117.248668,43.222785],[117.191905,43.017829],[117.106456,42.837226],[116.990123,42.682502],[116.840953,42.555182],[116.656993,42.456671],[116.436534,42.388556],[113.695323,42.3039],[113.075328,42.146918],[112.503917,41.862982],[111.703245,41.234576],[111.631905,41.178586],[111.547618,41.112433],[111.434114,41.060598],[111.134776,40.923896],[110.695323,40.8581],[107.419078,41.341681],[107.350289,41.339969],[107.276866,41.338141],[107.164806,41.296698],[107.08961,41.204474],[106.998912,40.813544],[106.85377,40.647284],[106.647838,40.530829],[105.909434,40.291022],[105.704356,40.184638],[105.560557,40.033515],[105.404131,39.559963],[105.375133,39.472174],[105.331309,39.390509],[105.256589,39.292108],[105.141612,39.140692],[104.809703,38.480231],[104.666026,38.320258],[104.456676,38.175299],[104.200694,38.049933],[103.65955,37.88682],[103.625621,37.876593],[103.094249,37.837104],[102.567699,38.096938],[102.374889,38.192084],[102.284293,38.210481],[102.014445,38.26528],[101.595788,38.350297],[100.996903,38.471913],[100.955943,38.480231],[100.6515,38.685981],[100.445441,38.872987],[100.368805,38.942538],[99.924693,39.345587],[99.650035,39.492865],[99.369278,39.547431],[99.287299,39.563364],[99.24586,39.571418],[99.102989,39.638384],[98.968928,39.701222],[98.839976,39.761664],[98.698985,39.803046],[98.123573,39.87201],[96.819582,40.028296],[96.45044,40.072539],[96.438696,40.073946],[95.927623,40.135199],[95.619118,40.244936],[95.36378,40.335761],[95.108287,40.492804],[94.881724,40.690497],[94.693004,40.930854],[94.550426,41.215827],[94.486583,41.433295],[94.462047,41.638617],[94.473643,41.833014],[94.518321,42.017218],[94.593028,42.19245],[95.278575,43.019355],[95.331432,43.117926],[95.362315,43.22248],[95.373424,43.34162],[95.339854,43.921332],[95.377611,44.086325],[95.505504,44.645209],[96.211192,44.856879],[99.695079,44.453864],[99.912081,44.474378],[100.751449,44.553726],[102.276378,44.697882],[104.285167,45.329962],[108.529063,45.432868],[109.133311,45.599799],[113.199229,47.673041],[113.812999,47.785773],[114.741131,47.756323],[115.719249,47.725287],[117.579845,47.344428],[117.684703,47.203803],[117.72108,46.928717],[117.522472,44.508734]]]}},{"type":"Feature","properties":{"FEATURECLA":"Plateau","NAME":"PLATEAU OF TIBET","NAMEALT":null,"REGION":"Asia","SUBREGION":null,"MIN_LABEL":3,"MAX_LABEL":6,"SCALERANK":1,"LABEL":null,"WIKIDATAID":"Q179842","NAME_AR":"هضبة التبت","NAME_BN":"তিব্বতীয় মালভূমি","NAME_DE":"Hochland von Tibet","NAME_EN":"Tibetan Plateau","NAME_ES":"Meseta Tibetana","NAME_FR":"Plateau tibétain","NAME_EL":"Υψίπεδο του Θιβέτ","NAME_HI":"तिब्बत का पठार","NAME_HU":"Tibeti-fennsík","NAME_ID":"Dataran tinggi Tibet","NAME_IT":"altopiano del Tibet","NAME_JA":"チベット高原","NAME_KO":"티베트고원","NAME_NL":"Tibetaans Hoogland","NAME_PL":"Wyżyna Tybetańska","NAME_PT":"Planalto do Tibete","NAME_RU":"Тибетское нагорье","NAME_SV":"Tibetanska högplatån","NAME_TR":"Tibet Platosu","NAME_VI":"Cao nguyên Thanh Tạng","NAME_ZH":"青藏高原","NE_ID":1159104345,"NAME_FA":"فلات تبت","NAME_HE":"הרמה הטיבטית","NAME_UK":"Тибетське плато","NAME_UR":"سطح مرتفع تبت","NAME_ZHT":"青藏高原"},"bbox":[73.03651,26.859809,104.112193,40.140692],"geometry":{"type":"Polygon","coordinates":[[[103.648936,36.664019],[103.752086,36.24433],[103.843942,35.884053],[103.990489,35.309272],[103.949107,34.362372],[104.112193,33.108893],[104.043101,31.86341],[103.883556,31.376044],[103.860362,31.33808],[103.424327,30.979132],[103.08192,30.440924],[103.225963,30.061896],[103.121349,29.699591],[102.909679,29.331122],[102.512828,28.942023],[102.22376,28.827658],[101.964854,28.725226],[101.953026,28.723419],[101.477794,28.650824],[99.363536,27.666266],[99.176422,27.584907],[98.938803,27.481587],[98.75587,27.402045],[96.283458,27.955695],[95.654439,28.284252],[95.545543,28.341132],[95.310321,28.174817],[95.310313,28.174811],[95.326915,28.144294],[94.908715,27.80222],[94.347179,27.342902],[93.830089,27.124335],[91.682384,26.859809],[89.645489,26.902885],[89.589976,26.904059],[89.5442,26.915045],[89.195567,26.923896],[88.985658,27.038055],[88.835094,27.11994],[88.652944,27.13696],[88.652843,27.136969],[88.251231,26.988288],[87.780528,26.903998],[87.459239,26.955695],[87.018825,27.026598],[85.336925,27.29737],[84.665782,27.573065],[83.859264,27.701361],[83.729503,27.746772],[83.501353,27.874701],[83.297374,27.95185],[82.486827,28.014533],[82.39796,28.049018],[82.000133,28.37873],[79.305125,29.95885],[77.313975,31.126288],[75.949107,32.226142],[75.94909,32.226119],[75.921031,32.189276],[74.966807,32.871772],[74.712835,33.074936],[74.521373,33.228095],[74.075938,33.584479],[73.505692,34.12619],[73.485724,34.145159],[73.481944,34.148749],[73.03651,34.445685],[73.422496,35.989936],[74.610362,37.415351],[74.749086,37.45936],[75.110448,37.574001],[76.08253,37.882392],[76.911618,38.020104],[77.018443,38.037848],[78.724864,37.221808],[79.749278,37.021491],[80.523065,36.62994],[80.631602,36.575019],[80.673836,36.561174],[80.842839,36.505772],[81.140269,36.408271],[81.162487,36.414337],[82.13502,36.679877],[83.32606,36.796698],[83.402218,36.816884],[83.670658,36.888033],[85.200084,37.293402],[85.708278,37.595319],[87.038341,38.385504],[87.174223,38.385504],[87.562389,38.385504],[87.912737,38.640642],[88.349132,38.958441],[89.260848,39.106379],[89.929578,39.21489],[95.635142,40.140692],[95.654685,40.139069],[96.438696,40.073946],[96.454466,40.072636],[96.616832,40.059149],[96.819582,40.028296],[97.435944,39.934502],[98.530053,39.768007],[98.936479,39.70616],[98.968928,39.701222],[99.051036,39.688727],[99.369278,39.547431],[99.527445,39.477206],[99.697204,39.401835],[99.841075,39.337958],[100.445441,38.872987],[100.955943,38.480231],[100.995591,38.472896],[101.744314,38.334377],[102.238292,38.242987],[102.284293,38.210481],[102.597179,37.989386],[102.864468,37.708619],[103.128551,37.43122],[103.575328,36.963507],[103.648936,36.664019]]]}},{"type":"Feature","properties":{"FEATURECLA":"Range/mtn","NAME":"ALTAY MOUNTAINS","NAMEALT":null,"REGION":"Asia","SUBREGION":null,"MIN_LABEL":4,"MAX_LABEL":7,"SCALERANK":2,"LABEL":"ALTAY MOUNTAINS","WIKIDATAID":"Q5955","NAME_AR":"جبال ألتاي","NAME_BN":"আলতাই পর্বতমালা","NAME_DE":"Altai","NAME_EN":"Altai Mountains","NAME_ES":"macizo de Altái","NAME_FR":"Altaï","NAME_EL":"Αλτάι","NAME_HI":"अल्ताई पर्वत शृंखला","NAME_HU":"Altaj","NAME_ID":"Pegunungan Altai","NAME_IT":"Monti Altaj","NAME_JA":"アルタイ山脈","NAME_KO":"알타이산맥","NAME_NL":"Altaj","NAME_PL":"Ałtaj","NAME_PT":"Montanhas Altai","NAME_RU":"Алтайские горы","NAME_SV":"Altaj","NAME_TR":"Altay Dağları","NAME_VI":"Dãy núi Altay","NAME_ZH":"阿尔泰山脉","NE_ID":1159104169,"NAME_FA":"کوههای آلتای","NAME_HE":"הרי אלטאי","NAME_UK":"Алтай","NAME_UR":"آلٹے پہاڑ","NAME_ZHT":"阿尔泰山脉"},"bbox":[81.92567,43.248786,100.790538,52.304877],"geometry":{"type":"Polygon","coordinates":[[[100.566905,44.103949],[100.329356,44.038764],[98.774303,43.984748],[98.260004,44.063996],[98.043101,44.097419],[97.970103,44.082709],[97.898448,44.05152],[97.806602,43.981753],[97.768199,43.952582],[97.463794,43.621247],[97.381847,43.53205],[97.140269,43.363471],[97.0088,43.304511],[96.87086,43.265448],[96.726939,43.248786],[96.577647,43.25672],[96.423595,43.291693],[96.266368,43.367743],[95.377611,44.086325],[95.13795,44.280097],[95.010509,44.339545],[94.874889,44.368903],[92.862682,44.411322],[91.924815,44.628852],[91.115123,44.675482],[90.655772,44.879706],[90.074962,45.421454],[89.761119,46.002326],[89.615123,46.398017],[89.336192,46.796881],[88.918224,47.220465],[88.400279,47.557746],[86.630138,48.097113],[84.334239,48.304877],[84.228404,48.437201],[83.924693,48.750312],[83.39149,49.783515],[83.302867,49.902533],[83.184581,50.011664],[82.999118,50.093941],[82.254527,50.424262],[82.104137,50.520453],[82.001475,50.644599],[81.943248,50.788947],[81.92567,50.945807],[81.945079,51.107428],[81.998057,51.266181],[82.081065,51.414252],[82.587169,52.061591],[82.676646,52.124396],[82.890269,52.217658],[83.338145,52.304877],[84.126196,52.240222],[85.724579,52.109084],[86.699962,52.029059],[87.250377,51.842597],[87.754405,51.563727],[88.297984,51.096869],[88.462657,50.866523],[88.493046,50.6914],[88.521488,50.527498],[88.570689,50.243964],[88.720217,50.158896],[89.653087,49.62818],[89.732432,49.446112],[89.77589,49.401557],[89.901866,49.321051],[90.043834,49.268866],[90.820079,49.142646],[90.954723,49.086493],[92.049449,48.103522],[92.239757,47.980109],[92.447032,47.890998],[92.962413,47.770819],[94.913341,46.912055],[95.612315,46.832099],[97.044566,46.181647],[98.97755,45.680121],[99.890758,45.091315],[100.440684,44.855048],[100.539627,44.793086],[100.563487,44.778144],[100.667491,44.684394],[100.746349,44.568915],[100.751449,44.553726],[100.790538,44.437323],[100.786388,44.326117],[100.742442,44.234137],[100.666515,44.160468],[100.566905,44.103949]]]}},{"type":"Feature","properties":{"FEATURECLA":"Plain","NAME":"MANCHURIAN PLAIN","NAMEALT":null,"REGION":"Asia","SUBREGION":null,"MIN_LABEL":4,"MAX_LABEL":7,"SCALERANK":2,"LABEL":"MANCHURIAN PLAIN","WIKIDATAID":"Q28809720","NAME_AR":"سهل منشوريا","NAME_BN":"মাঞ্চুরিয়ান প্লেন","NAME_DE":"Nordostchinesische Ebene","NAME_EN":"Manchurian Plain","NAME_ES":"LLANURA DE MANCHURIA","NAME_FR":"Plaine de Mandchourie","NAME_EL":"ΠΕΔΙΑΔΑ ΜΑΝΧΟΥΡΙΚΟ","NAME_HI":"मंचूरियन मैदान","NAME_HU":"MANDZSÚRIAI-SÍKSÁG","NAME_ID":"DATARAN MANCHURIA","NAME_IT":"Pianura della Manciuria","NAME_JA":"東北平原","NAME_KO":"맨추리안 플레인","NAME_NL":"Vlakte van Mantsjoerije","NAME_PL":"Nizina Mandżurska","NAME_PT":"Planície da Manchúria","NAME_RU":"Маньчжурская равнина","NAME_SV":"Manchurian Plain","NAME_TR":"MANÇURYA OVASI","NAME_VI":"BÌNH NGUYÊN ĐÔNG BẮC","NAME_ZH":"东北平原","NE_ID":1159104203,"NAME_FA":"دشت مانچوریان","NAME_HE":"מנדלאיי","NAME_UK":"СУНЛЯО","NAME_UR":"منچورین پلین","NAME_ZHT":"滿洲平原"},"bbox":[119.483653,40.701117,127.904307,49.063666],"geometry":{"type":"Polygon","coordinates":[[[125.128673,43.325507],[125.087657,43.318854],[125.058849,43.321601],[125.038341,43.331122],[124.983653,43.374274],[124.95399,43.384711],[124.911388,43.388922],[124.801036,43.381659],[124.700572,43.359503],[124.608165,43.323554],[124.443248,43.213629],[123.768199,42.352545],[123.689464,42.174689],[123.666515,42.009467],[123.670909,41.682685],[123.658092,41.592902],[123.632335,41.511908],[123.593883,41.448127],[123.544688,41.399237],[123.486217,41.362799],[123.018565,41.251166],[122.952403,41.218878],[122.895763,41.178229],[122.542003,40.790656],[122.376964,40.720526],[122.196056,40.701117],[122.088557,40.71653],[121.858789,40.84209],[121.834863,40.974268],[121.808594,40.968506],[121.765625,40.875879],[121.742871,40.857253],[121.681529,40.898261],[121.560435,41.032843],[121.484752,41.193671],[121.480479,41.305121],[121.518687,41.42475],[121.948131,41.9831],[122.110118,42.296271],[122.104259,42.406684],[122.074596,42.485724],[122.025401,42.541815],[121.718516,42.702582],[121.454723,42.913153],[121.331187,42.974921],[121.010142,43.062079],[119.729137,43.126227],[119.615855,43.157904],[119.530162,43.202643],[119.483653,43.263312],[119.489146,43.400946],[119.580821,43.535468],[119.734874,43.662726],[120.499766,44.012885],[120.887462,44.110602],[120.989268,44.161811],[121.403256,44.538288],[122.275805,45.33178],[122.634288,45.657782],[122.690196,45.731147],[122.778018,45.907757],[122.812266,45.97663],[122.907585,46.056354],[123.170787,46.276496],[123.424449,46.673774],[123.45753,46.760077],[123.470714,46.843512],[123.466197,46.924506],[123.446178,47.003424],[123.368907,47.156317],[123.161143,47.434943],[123.130504,47.498358],[123.115611,47.561957],[123.119762,47.626776],[123.146373,47.693793],[123.198741,47.7638],[123.333263,47.876471],[123.671275,48.081855],[124.225841,48.647345],[124.636607,48.893866],[125.08839,49.031501],[125.56776,49.063666],[126.457286,48.939276],[126.88148,48.810736],[127.068492,48.714118],[127.22816,48.589545],[127.837535,47.706671],[127.891734,47.548285],[127.904307,47.390326],[127.863292,47.234626],[127.332042,46.316718],[127.292735,46.158149],[127.293468,46.002997],[127.366954,45.681952],[127.362071,45.626227],[127.344981,45.569037],[126.805919,44.86164],[126.591319,44.259101],[126.563487,43.999213],[126.547252,43.952582],[126.516856,43.906012],[126.414439,43.819525],[126.047862,43.634833],[125.552257,43.525397],[125.128673,43.325507]]]}},{"type":"Feature","properties":{"FEATURECLA":"Plateau","NAME":"MONGOLIAN PLATEAU","NAMEALT":null,"REGION":"Asia","SUBREGION":null,"MIN_LABEL":4,"MAX_LABEL":7,"SCALERANK":2,"LABEL":null,"WIKIDATAID":"Q560198","NAME_AR":"هضبة منغوليا","NAME_BN":"মঙ্গোলিয়ান প্লেটো","NAME_DE":"Mongolisches Plateau","NAME_EN":"Mongolian Plateau","NAME_ES":"Meseta de Mongolia","NAME_FR":"plateau de Mongolie","NAME_EL":"Οροπέδιο της Μογγολίας","NAME_HI":"मंगोलिया का पठार","NAME_HU":"MONGOL-SÍKSÁG","NAME_ID":"Mongolia","NAME_IT":"Grande Mongolia","NAME_JA":"モンゴル高原","NAME_KO":"몽골고원","NAME_NL":"Mongoolse Hoogvlakte","NAME_PL":"Wyżyna Mongolska","NAME_PT":"Planalto Mongol","NAME_RU":"Монгольское плато","NAME_SV":"Mongoliska platån","NAME_TR":"MOĞOL PLATOSU","NAME_VI":"Đại Mông Cổ","NAME_ZH":"蒙古高原","NE_ID":1159104229,"NAME_FA":"فلات مغولستان","NAME_HE":"מונגונגלה","NAME_UK":"Монгольське плато","NAME_UR":"منگولی سطح مرتفع","NAME_ZHT":"蒙古高原"},"bbox":[97.321544,41.849494,115.184093,50.661139],"geometry":{"type":"Polygon","coordinates":[[[108.959406,50.52879],[110.249522,49.971381],[110.468028,49.798529],[110.549449,49.751166],[110.602796,49.738011],[110.621226,49.733466],[110.645304,49.734984],[110.690929,49.73786],[111.106334,49.824836],[111.406627,49.80268],[111.920909,49.681708],[112.058116,49.680976],[112.309947,49.725592],[112.377208,49.717353],[112.421275,49.691169],[112.486827,49.618232],[112.531749,49.588019],[112.600597,49.572943],[112.77064,49.57923],[112.822154,49.552497],[112.906944,49.450665],[112.933604,49.418647],[112.970348,49.38758],[113.013805,49.379035],[113.068126,49.402533],[113.141612,49.448371],[113.156016,49.448554],[113.203136,49.395514],[113.245616,49.370368],[113.466563,49.299262],[113.921886,49.075873],[114.317393,49.026374],[114.41627,48.969306],[114.487193,48.880378],[114.536021,48.764899],[114.714854,47.819831],[114.741131,47.756323],[114.976207,47.188178],[115.163585,45.309272],[115.136119,45.108588],[115.071056,44.92536],[115.184093,44.105048],[115.182017,43.859565],[115.130504,43.61756],[115.010997,43.388922],[114.940929,43.330268],[113.984874,42.77851],[113.920543,42.710822],[113.802867,42.648139],[111.322398,42.001837],[107.682628,42.403632],[106.831309,42.289008],[106.694469,42.296088],[106.563975,42.326483],[106.459849,42.329474],[105.474376,41.988959],[105.232921,42.019355],[103.290538,41.849494],[103.15211,41.871894],[102.885142,41.961554],[99.031016,42.363044],[97.408214,43.062567],[97.336436,43.086493],[97.321544,43.159491],[97.463794,43.621247],[97.47755,43.6659],[97.481822,43.776923],[97.436778,43.85401],[97.480235,43.922553],[97.806602,43.981753],[98.260004,44.063996],[99.742076,44.332831],[99.781016,44.368903],[99.776866,44.405707],[99.912081,44.474378],[100.539627,44.793086],[100.863536,44.957587],[100.905284,45.0409],[100.922862,45.125983],[101.008556,45.200202],[101.783702,45.488593],[101.873668,45.5456],[101.984705,45.658539],[102.123057,45.799262],[102.205455,45.938849],[102.232066,46.022223],[102.251964,46.200873],[102.242564,46.353034],[102.154796,46.639777],[101.945201,47.022101],[101.664317,47.299384],[101.638438,47.347357],[101.625133,47.40058],[101.629039,47.448188],[101.676524,47.570868],[101.792349,47.748957],[101.835704,47.815619],[101.925792,47.903632],[103.02064,48.640937],[103.299937,48.764838],[103.508678,48.813788],[103.605724,48.819342],[104.466197,48.609565],[104.647472,48.635382],[104.837169,48.739814],[105.596568,49.33747],[105.766002,49.3805],[105.9192,49.32038],[105.973643,49.333991],[106.333391,49.90229],[106.519542,50.196357],[106.586681,50.227118],[106.6869,50.223578],[106.806285,50.255866],[107.470714,50.566352],[108.653087,50.661139],[108.756118,50.616623],[108.959406,50.52879]]]}},{"type":"Feature","properties":{"FEATURECLA":"Range/mtn","NAME":"Nan Ling Mts.","NAMEALT":null,"REGION":"Asia","SUBREGION":null,"MIN_LABEL":5,"MAX_LABEL":8,"SCALERANK":3,"LABEL":"Nan Ling Mts.","WIKIDATAID":"Q1195285","NAME_AR":"جبال نان لينغ","NAME_BN":"নান লিং মাউন্টেন","NAME_DE":"Nan Ling","NAME_EN":"Nanling Mountains","NAME_ES":"Montaña Nan Ling","NAME_FR":"monts Nanling","NAME_EL":"Όρη Ναν Λινγκ","NAME_HI":"नान लिंग पर्वत","NAME_HU":"Nan Ling-hegység","NAME_ID":"Pegunungan Nan","NAME_IT":"Monti Nanling","NAME_JA":"南嶺山脈","NAME_KO":"난링산맥","NAME_NL":"Zuid-Chinees Bergland","NAME_PL":"Góry Południowochińskie","NAME_PT":"Montanhas Nanling","NAME_RU":"Южно-Китайские горы","NAME_SV":"Nan Ling","NAME_TR":"Nan Ling Dağları","NAME_VI":"Nam Lĩnh","NAME_ZH":"南岭","NE_ID":1159103913,"NAME_FA":"کوه های نان لینگ","NAME_HE":"רכס נאן לינג","NAME_UK":"гори Нанлінг","NAME_UR":"نان لنگ پہاڑ","NAME_ZHT":"南岭"},"bbox":[109.42274,23.262641,114.119884,25.869513],"geometry":{"type":"Polygon","coordinates":[[[113.088878,23.652838],[112.859141,23.60401],[112.302257,23.2956],[112.183116,23.262641],[111.859019,23.262885],[111.714366,23.289862],[111.572032,23.3581],[111.323009,23.543402],[111.196788,23.604804],[111.129405,23.623358],[111.058482,23.631781],[110.983653,23.628546],[110.785289,23.721137],[110.006847,23.853034],[109.975963,23.868354],[109.934825,23.898566],[109.899303,23.935004],[109.844493,24.021735],[109.809703,24.117987],[109.793101,24.213263],[109.800304,24.387274],[109.795909,24.413703],[109.786876,24.436164],[109.762218,24.466864],[109.731334,24.488593],[109.54713,24.541632],[109.517589,24.557196],[109.457774,24.617072],[109.427867,24.687262],[109.42274,24.763983],[109.438121,24.843268],[109.469249,24.921515],[109.560435,25.059211],[109.69044,25.185004],[109.7046,25.204901],[109.715099,25.227362],[109.749156,25.372077],[109.821544,25.55036],[109.826671,25.583319],[109.823863,25.613654],[110.111583,25.815619],[110.212413,25.854926],[110.306285,25.869513],[111.556529,25.869025],[111.661388,25.846747],[111.7588,25.802069],[111.927989,25.648139],[111.961803,25.627692],[112.040538,25.601752],[113.514049,25.395575],[113.756847,25.319159],[113.909312,25.242682],[113.991954,25.179267],[114.064098,25.099677],[114.091563,25.055365],[114.11085,25.009101],[114.119884,24.961371],[114.118663,24.906745],[114.106944,24.867682],[114.086192,24.840766],[114.05775,24.822455],[113.897105,24.766913],[113.822765,24.71424],[113.772349,24.64588],[113.662974,24.301398],[113.622813,24.21894],[113.562877,24.14643],[113.375377,23.999762],[113.322032,23.939032],[113.191905,23.72602],[113.161632,23.696295],[113.124889,23.670233],[113.088878,23.652838]]]}},{"type":"Feature","properties":{"FEATURECLA":"Range/mtn","NAME":"Wuyi Mts.","NAMEALT":null,"REGION":"Asia","SUBREGION":null,"MIN_LABEL":5,"MAX_LABEL":8,"SCALERANK":3,"LABEL":"Wuyi Mts.","WIKIDATAID":"Q207692","NAME_AR":"سلسلة جبال وويى","NAME_BN":"উয়ি পর্বতমালা","NAME_DE":"Wuyi-Gebirge","NAME_EN":"Wuyi Mountains","NAME_ES":"Monte Wuyi","NAME_FR":"Monts Wuyi","NAME_EL":"Όρη Γούιγι","NAME_HI":"वूई पर्वत","NAME_HU":"Wuyi-hegység","NAME_ID":"Pegunungan Wuyi","NAME_IT":"Monte Wuyi","NAME_JA":"武夷山","NAME_KO":"우이산","NAME_NL":"Wuyigebergte","NAME_PL":"Wuyi Shan","NAME_PT":"Monte Wuyi","NAME_RU":"Уишань","NAME_SV":"Wuyishan","NAME_TR":"Wuyi Dağları","NAME_VI":"Khu thắng cảnh Vũ Di Sơn","NAME_ZH":"武夷山脉","NE_ID":1159103921,"NAME_FA":"کوه وویی","NAME_HE":"הרי וו-יי","NAME_UK":"Уїшань","NAME_UR":"ووئی پہاڑ","NAME_ZHT":"武夷山脉"},"bbox":[115.771861,25.355475,118.334117,28.465033],"geometry":{"type":"Polygon","coordinates":[[[116.910167,25.368354],[116.861461,25.355475],[116.797862,25.362799],[116.306407,25.554145],[116.15919,25.646064],[116.008556,25.776374],[115.896495,25.910468],[115.779796,26.214362],[115.771861,26.261786],[115.771861,26.308234],[115.913707,26.917914],[116.131969,27.440802],[116.353404,27.7956],[116.38148,27.826911],[117.157848,28.398383],[117.243541,28.435004],[117.463878,28.465033],[117.576793,28.460517],[118.242931,28.285651],[118.279307,28.263312],[118.325572,28.19184],[118.334117,28.094428],[118.02711,26.639838],[118.03358,26.511664],[117.868175,25.824408],[117.744395,25.630255],[117.667247,25.557257],[117.581554,25.508185],[116.910167,25.368354]]]}},{"type":"Feature","properties":{"FEATURECLA":"Basin","NAME":"SICHUAN BASIN","NAMEALT":null,"REGION":"Asia","SUBREGION":null,"MIN_LABEL":4,"MAX_LABEL":8,"SCALERANK":3,"LABEL":null,"WIKIDATAID":"Q271294","NAME_AR":"حوض سيتشوان","NAME_BN":"সিচুয়ান বেসিন","NAME_DE":"Sichuan-Becken","NAME_EN":"Sichuan Basin","NAME_ES":"Cuenca de Sichuan","NAME_FR":"bassin du Sichuan","NAME_EL":"ΛΕΚΑΝΟΠΕΔΙΟ ΣΙΧΟΥΑΝ","NAME_HI":"सिचुआन बेसिन","NAME_HU":"SZECSUÁN-MEDENCE","NAME_ID":"Cekungan Sichuan","NAME_IT":"bacino del Sichuan","NAME_JA":"四川盆地","NAME_KO":"쓰촨 분지","NAME_NL":"Rode Bekken","NAME_PL":"Kotlina Syczuańska","NAME_PT":"Bacia de Sichuan","NAME_RU":"Сычуаньская котловина","NAME_SV":"Sichuanbäckenet","NAME_TR":"SICHUAN HAVZASI","NAME_VI":"Bồn địa Tứ Xuyên","NAME_ZH":"四川盆地","NE_ID":1159104091,"NAME_FA":"حوضه سیچوئان","NAME_HE":"אגן סיצ'ואן","NAME_UK":"Сичуаньська западина","NAME_UR":"سیشوان بیسن","NAME_ZHT":"四川盆地"},"bbox":[103.267589,28.694831,107.735606,32.052253],"geometry":{"type":"Polygon","coordinates":[[[105.230235,31.833564],[105.33607,31.829291],[105.876353,31.937323],[105.932384,31.934821],[105.987315,31.923651],[106.040782,31.901923],[106.292613,31.71485],[106.33961,31.691169],[106.910655,31.58161],[107.003917,31.535834],[107.075572,31.471259],[107.118053,31.383795],[107.098888,31.359259],[107.086803,31.322089],[107.096324,30.990973],[107.007213,30.648078],[106.939586,30.496772],[106.908336,30.447028],[106.912608,30.389411],[106.992198,30.325873],[107.594737,30.040656],[107.698253,29.968695],[107.735606,29.899176],[107.731334,29.857733],[107.722667,29.825202],[107.708751,29.799994],[107.688731,29.780585],[107.661876,29.76557],[106.973366,29.554745],[106.915948,29.537163],[106.629161,29.449347],[106.167331,29.023428],[105.994151,28.863715],[105.92567,28.827582],[105.767819,28.814433],[105.343517,28.779088],[104.332042,28.694831],[104.266856,28.710883],[104.159434,28.763312],[103.610005,29.180936],[103.52968,29.241991],[103.380138,29.355658],[103.316905,29.437873],[103.275523,29.545417],[103.267589,30.518317],[103.333995,30.695807],[103.439464,30.851325],[103.504893,30.915961],[103.651256,31.024237],[104.140391,31.597663],[104.547252,31.943],[104.710704,32.022895],[104.784312,32.043769],[104.852794,32.052253],[104.91627,32.04859],[104.974986,32.033087],[105.028819,32.005927],[105.052257,31.987616],[105.136851,31.877997],[105.158092,31.860175],[105.184459,31.846198],[105.230235,31.833564]]]}},{"type":"Feature","properties":{"FEATURECLA":"Range/mtn","NAME":"Yin Mts.","NAMEALT":null,"REGION":"Asia","SUBREGION":null,"MIN_LABEL":5.3,"MAX_LABEL":9,"SCALERANK":4,"LABEL":null,"WIKIDATAID":"Q1152132","NAME_AR":"سلسلة جبال ين","NAME_BN":"ইন পর্বতমালা","NAME_DE":"Yin Shan","NAME_EN":"Yin Mountains","NAME_ES":"Montañas Yin","NAME_FR":"Monts Yin","NAME_EL":"Όρη Γιν","NAME_HI":"यिन पर्वत","NAME_HU":"Yin hegység","NAME_ID":"Kepulauan Yin","NAME_IT":"monti Yin","NAME_JA":"陰山山脈","NAME_KO":"인산산맥","NAME_NL":"Yin Mountains","NAME_PL":"Yin Shan","NAME_PT":"Montanhas Yin","NAME_RU":"Иньшань","NAME_SV":"Yin Shan","NAME_TR":"Yin Dağları","NAME_VI":"Âm Sơn","NAME_ZH":"阴山","NE_ID":1730072653,"NAME_FA":"رشته کوه یین","NAME_HE":"רכס אין","NAME_UK":"Іньшань","NAME_UR":"ین پہاڑ","NAME_ZHT":"阴山"},"bbox":[105.700938,40.835211,111.70692,42.403632],"geometry":{"type":"Polygon","coordinates":[[[111.557017,41.681891],[111.703245,41.234576],[111.70692,41.223334],[111.631905,41.178586],[111.434114,41.060598],[111.204234,40.923468],[110.816173,40.835211],[107.350289,41.339969],[107.182628,41.364386],[107.006114,41.188056],[106.547618,41.046881],[106.159434,41.223334],[105.700938,41.540839],[106.018443,42.140509],[106.563975,42.326483],[107.682628,42.403632],[111.098399,41.964179],[111.557017,41.681891]]]}},{"type":"Feature","properties":{"FEATURECLA":"Range/mtn","NAME":"Taihang Mts.","NAMEALT":null,"REGION":"Asia","SUBREGION":null,"MIN_LABEL":5.3,"MAX_LABEL":9,"SCALERANK":4,"LABEL":null,"WIKIDATAID":"Q284226","NAME_AR":"جبال تايهانغ","NAME_BN":"তাইহাং পর্বতমালা","NAME_DE":"Taihang Shan","NAME_EN":"Taihang Mountains","NAME_ES":"Montañas Taihang","NAME_FR":"Monts Taihang","NAME_EL":"Όρη Ταϊχάνγκ","NAME_HI":"ताइहांग पर्वत","NAME_HU":"Taihang-hegység","NAME_ID":"Pegunungan Taihang","NAME_IT":"monti Taihang","NAME_JA":"太行山脈","NAME_KO":"타이항산맥","NAME_NL":"Taihang Mountains","NAME_PL":"Taihang Shan","NAME_PT":"Montanhas Taihang","NAME_RU":"Тайханшань","NAME_SV":"Taihangbergen","NAME_TR":"Taihang Dağları","NAME_VI":"Thái Hành Sơn","NAME_ZH":"太行山","NE_ID":1159103569,"NAME_FA":"رشته کوه تایهانگ","NAME_HE":"הרי טאיחאנג","NAME_UK":"Тайханшань","NAME_UR":"تائیہانگ پہاڑ","NAME_ZHT":"太行山"},"bbox":[112.876231,35.356208,114.897472,41.665595],"geometry":{"type":"Polygon","coordinates":[[[113.86317,35.477301],[113.250865,35.356208],[113.154918,35.359809],[113.095103,35.388251],[113.065562,35.4383],[113.059703,35.507025],[113.170543,36.071479],[113.09669,36.758307],[112.988536,37.074836],[112.965587,37.214911],[112.979503,37.324958],[113.058726,37.589484],[113.063487,37.66175],[113.053355,37.725043],[112.909679,37.999762],[112.889293,38.064948],[112.876231,38.209052],[112.898814,38.335211],[112.948375,38.448188],[113.242686,38.865363],[113.29713,38.984992],[113.325328,39.116767],[113.340465,40.957282],[113.258922,41.223395],[113.258922,41.274359],[113.273204,41.323554],[113.303722,41.37226],[113.342296,41.409186],[113.387218,41.436103],[113.489024,41.466559],[113.702647,41.487555],[113.750865,41.504035],[113.960948,41.633979],[114.013682,41.653022],[114.081065,41.665595],[114.223643,41.662299],[114.503184,41.581794],[114.637706,41.51612],[114.757579,41.423407],[114.80421,41.36872],[114.841685,41.308234],[114.869884,41.241645],[114.897472,41.089423],[114.893321,40.97956],[114.839976,40.786139],[114.661143,40.429877],[114.609141,40.265998],[114.603404,40.119574],[114.686534,39.728217],[114.684459,39.709723],[114.675304,39.700568],[114.648448,39.691779],[114.637462,39.68299],[114.632823,39.665107],[114.641124,39.592414],[114.633678,39.553046],[114.55836,39.400153],[114.545665,39.35987],[114.542735,39.193793],[114.535899,39.157355],[114.435802,38.970649],[114.393932,38.836798],[114.402559,37.907961],[114.41074,37.027248],[114.41325,36.75706],[114.418101,36.234809],[114.391612,36.137763],[114.346934,36.038947],[114.000011,35.57392],[113.932872,35.517035],[113.86317,35.477301]]]}},{"type":"Feature","properties":{"FEATURECLA":"Range/mtn","NAME":"Qinling Mountains","NAMEALT":null,"REGION":"Asia","SUBREGION":null,"MIN_LABEL":5.3,"MAX_LABEL":9,"SCALERANK":4,"LABEL":"Qinling Mountains","WIKIDATAID":"Q863798","NAME_AR":"جبال تشينلينغ","NAME_BN":"কোইংলিং মাউন্টেন্স","NAME_DE":"Qin Ling","NAME_EN":"Qinling","NAME_ES":"Cordillera Qin","NAME_FR":"Monts Qinling","NAME_EL":"Όρη Κινλινγκ","NAME_HI":"किनलिंग पर्वत","NAME_HU":"Csinling-hegység","NAME_ID":"Qinling","NAME_IT":"monti Qin","NAME_JA":"秦嶺山脈","NAME_KO":"친링 산맥","NAME_NL":"Qinling Shan","NAME_PL":"Qin Ling","NAME_PT":"Qinling","NAME_RU":"Циньлин","NAME_SV":"Qinling","NAME_TR":"Qin Dağları","NAME_VI":"Tần Lĩnh","NAME_ZH":"秦岭","NE_ID":1159103573,"NAME_FA":"چینلینگ","NAME_HE":"צ'ין-לינג","NAME_UK":"Циньлін","NAME_UR":"قنگلنگ ماؤنٹینز","NAME_ZHT":"秦岭"},"bbox":[105.027599,32.525031,114.2046,34.857489],"geometry":{"type":"Polygon","coordinates":[[[112.99232,34.727668],[113.391002,34.11695],[113.411021,34.045905],[113.3921,34.010749],[113.333507,33.981452],[113.307384,33.945441],[113.306773,33.903998],[113.325938,33.858344],[113.597789,33.483832],[114.168712,32.94184],[114.19337,32.895758],[114.2046,32.85401],[114.203136,32.815009],[114.189708,32.776984],[113.98878,32.550971],[113.96339,32.533026],[113.9369,32.525031],[113.906627,32.528449],[113.870006,32.544501],[112.764293,33.513007],[112.580699,33.605048],[112.525035,33.618537],[112.414439,33.61579],[112.41505,33.554023],[112.433482,33.496588],[112.485362,33.394294],[112.499034,33.349372],[112.491588,33.308478],[112.452891,33.271552],[112.373424,33.238532],[112.296886,33.221259],[112.227672,33.216376],[112.163463,33.221869],[111.858653,33.335028],[111.859386,33.286628],[111.872813,33.245246],[111.93922,33.138983],[111.954112,33.101264],[111.957286,33.058356],[111.943736,33.007758],[111.93336,32.988959],[111.838878,32.902411],[111.826671,32.886054],[111.811778,32.84986],[111.792003,32.772528],[111.785167,32.756354],[111.776134,32.742804],[111.685435,32.681586],[111.56776,32.662299],[110.774425,32.84925],[110.487804,32.814582],[109.935313,32.653205],[109.793101,32.634223],[108.931285,32.700507],[108.840587,32.73017],[108.575938,32.888922],[107.598155,33.271796],[105.88856,33.197882],[105.591807,33.233588],[105.463267,33.280402],[105.355968,33.353034],[105.242931,33.482123],[105.146739,33.639228],[105.074229,33.809027],[105.032359,33.976081],[105.027599,34.035468],[105.031627,34.087348],[105.043712,34.133612],[105.087901,34.215583],[105.291759,34.440802],[105.402476,34.519538],[105.519786,34.577216],[105.771251,34.642157],[106.255748,34.65882],[106.847179,34.555609],[107.34901,34.539313],[107.848155,34.357856],[109.213634,34.347419],[111.140025,34.800666],[111.406993,34.79151],[112.07545,34.67237],[112.222789,34.679267],[112.51828,34.783599],[112.708018,34.850592],[112.808604,34.857489],[112.823922,34.851622],[112.903087,34.821295],[112.99232,34.727668]]]}},{"type":"Feature","properties":{"FEATURECLA":"Plateau","NAME":"Loess Plateau","NAMEALT":null,"REGION":"Asia","SUBREGION":null,"MIN_LABEL":5.3,"MAX_LABEL":9,"SCALERANK":4,"LABEL":"Loess Plateau","WIKIDATAID":"Q293730","NAME_AR":"هضبة اللوس","NAME_BN":"লোয়েস প্লেটো","NAME_DE":"Lössplateau","NAME_EN":"Loess Plateau","NAME_ES":"Meseta de Loes","NAME_FR":"plateau de Lœss","NAME_EL":"οροπέδιο του κιτρινοχώματος","NAME_HI":"लोएस पठार","NAME_HU":"Loess-fennsík","NAME_ID":"Dataran Tinggi Loess","NAME_IT":"altopiano del Loess","NAME_JA":"黄土高原","NAME_KO":"황투고원","NAME_NL":"Lössplateau","NAME_PL":"Wyżyna Lessowa","NAME_PT":"Planalto de Loess","NAME_RU":"Лёссовое плато","NAME_SV":"Lössplatån","NAME_TR":"Loess Platosu","NAME_VI":"Cao nguyên Hoàng Thổ","NAME_ZH":"黄土高原","NE_ID":1159103717,"NAME_FA":"فلات لوئس","NAME_HE":"רמת הלֶס","NAME_UK":"Лесове плато","NAME_UR":"لوایس پلیٹیو","NAME_ZHT":"黄土高原"},"bbox":[103.601817,34.563483,111.281505,37.771979],"geometry":{"type":"Polygon","coordinates":[[[104.255992,37.771979],[107.160533,37.456],[107.415172,37.481513],[107.539348,37.519331],[107.567882,37.528022],[107.572815,37.528196],[109.288423,37.588922],[109.635387,37.601203],[109.715465,37.586188],[109.863414,37.524054],[110.202469,37.24741],[110.306407,37.162604],[110.443736,36.987128],[110.592906,36.692572],[110.645763,36.622809],[110.687633,36.586493],[110.955089,36.463202],[111.099864,36.33515],[111.234508,36.167426],[111.261241,36.109809],[111.264356,36.094824],[111.272838,36.054023],[111.27003,35.997626],[111.268214,35.991165],[111.253307,35.938117],[111.147594,35.733832],[111.137218,35.678412],[111.144298,35.629889],[111.251598,35.435126],[111.274303,35.368964],[111.281505,35.286811],[111.262462,35.217047],[111.222667,35.158026],[111.167003,35.1081],[110.344493,34.684882],[110.137218,34.645514],[109.200694,34.688788],[108.734752,34.635199],[108.435191,34.563483],[107.306407,34.627631],[106.237071,34.884101],[105.519176,34.900946],[105.410899,34.93592],[105.315929,34.988105],[104.81898,35.400641],[104.755382,35.425727],[104.354503,35.461615],[104.29005,35.479987],[104.141368,35.561103],[104.004039,35.678412],[103.886729,35.815985],[103.843942,35.884053],[103.797374,35.958136],[103.692149,36.23194],[103.648936,36.664019],[103.601817,37.135138],[103.625255,37.325507],[103.692149,37.479743],[103.795421,37.599677],[103.928355,37.68714],[104.084239,37.743964],[104.255992,37.771979]]]}}],"bbox":[-180,-89.9999325500059,180,83.9799868835879]}